[{"OBJECT_NAME":"SEMI-1L","OBJECT_ID":"2025-248B","EPOCH":"2026-03-09T21:45:29.470176","MEAN_MOTION":15.19686744,"ECCENTRICITY":0.00031601,"INCLINATION":45.401,"RA_OF_ASC_NODE":293.7683,"ARG_OF_PERICENTER":233.4866,"MEAN_ANOMALY":126.573,"EPHEMERIS_TYPE":0,"CLASSIFICATION_TYPE":"U","NORAD_CAT_ID":66294,"ELEMENT_SET_NO":999,"REV_AT_EPOCH":1940,"BSTAR":0.00059102976,"MEAN_MOTION_DOT":0.0001258,"MEAN_MOTION_DDOT":0},{"OBJECT_NAME":"SPEQTRE","OBJECT_ID":"2025-276DH","EPOCH":"2026-03-09T18:08:43.723104","MEAN_MOTION":15.19499769,"ECCENTRICITY":0.00013871,"INCLINATION":97.4277,"RA_OF_ASC_NODE":144.1551,"ARG_OF_PERICENTER":149.2003,"MEAN_ANOMALY":210.9313,"EPHEMERIS_TYPE":0,"CLASSIFICATION_TYPE":"U","NORAD_CAT_ID":66769,"ELEMENT_SET_NO":999,"REV_AT_EPOCH":1533,"BSTAR":0.00033482906,"MEAN_MOTION_DOT":7.042e-5,"MEAN_MOTION_DDOT":0}]
